IRIDIUM 136             
1 42962U 17061H   24051.91488813  .00000220  00000+0  71463-4 0  9990
2 42962  86.3993  19.3114 0002038  80.7377 279.4049 14.34217238333398
